NORAD_CAT_ID,OBJECT_NAME,OBJECT_TYPE,EPOCH,MEAN_MOTION,ECCENTRICITY,INCLINATION,RA_OF_ASC_NODE,ARG_OF_PERICENTER,MEAN_ANOMALY,BSTAR,MEAN_MOTION_DOT,MEAN_MOTION_DDOT,TLE_LINE0,TLE_LINE1,TLE_LINE2,SEMIMAJOR_AXIS,PERIOD,APOGEE,PERIGEE,DECAYED
52456.0,STARLINK-3896,PAYLOAD,2022-10-20 04:40:26,15.08859188,0.0001629,53.2183,219.9682,56.9737,303.1412,0.0010949999999999,0.00017191,0.0,0 STARLINK-3896,1 52456U 22049F   22293.19475095  .00017191  00000-0  10950-2 0  9993,2 52456  53.2183 219.9682 0001629  56.9737 303.1412 15.08859188 25608,6917.821999999999,95.436,540.814,538.56,0.0
52456.0,STARLINK-3896,PAYLOAD,2022-10-21 12:28:08,15.08846025,0.0001526,53.2194,214.0221,60.6957,299.4188,0.00011896,1.606e-05,0.0,0 STARLINK-3896,1 52456U 22049F   22294.51954568  .00001606  00000-0  11896-3 0  9992,2 52456  53.2194 214.0221 0001526  60.6957 299.4188 15.08846025 25644,6917.861999999999,95.437,540.783,538.6709999999998,0.0
52456.0,STARLINK-3896,PAYLOAD,2022-10-22 04:21:59,15.08851812,0.0001739,53.2199,211.048,57.4878,302.6282,-5.3897e-05,-1.146e-05,0.0,0 STARLINK-3896,1 52456U 22049F   22295.18194337 -.00001146  00000-0 -53897-4 0  9995,2 52456  53.2199 211.0480 0001739  57.4878 302.6282 15.08851812 25748,6917.844,95.437,540.9119999999998,538.506,0.0
52456.0,STARLINK-3896,PAYLOAD,2022-10-22 20:15:50,15.08843212,0.0001626,53.2202,208.0755,51.6455,308.4684,0.00010596,1.399e-05,0.0,0 STARLINK-3896,1 52456U 22049F   22295.84433928  .00001399  00000-0  10596-3 0  9996,2 52456  53.2202 208.0755 0001626  51.6455 308.4684 15.08843212 25842,6917.871,95.437,540.86,538.611,0.0
52456.0,STARLINK-3896,PAYLOAD,2022-10-22 21:51:14,15.08827201,0.0001685,53.2208,207.7788,41.8075,318.3046,0.00033225,5.002e-05,0.0,0 STARLINK-3896,1 52456U 22049F   22295.91058095  .00005002  00000-0  33225-3 0  9991,2 52456  53.2208 207.7788 0001685  41.8075 318.3046 15.08827201 26016,6917.92,95.438,540.95,538.619,0.0
52456.0,STARLINK-3896,PAYLOAD,2022-10-23 01:01:59,15.08847608,0.0001585,53.2202,207.1822,56.2134,303.9009,0.0001406999999999,1.952e-05,0.0,0 STARLINK-3896,1 52456U 22049F   22296.04305438  .00001952  00000-0  14070-3 0  9999,2 52456  53.2202 207.1822 0001585  56.2134 303.9009 15.08847608 25873,6917.857,95.437,540.819,538.626,0.0
52456.0,STARLINK-3896,PAYLOAD,2022-10-23 18:31:16,15.08821944,0.0001624,53.219,203.9134,53.2596,306.8545,-0.00011064,-2.048e-05,0.0,0 STARLINK-3896,1 52456U 22049F   22296.77171562 -.00002048  00000-0 -11064-3 0  9997,2 52456  53.2190 203.9134 0001624  53.2596 306.8545 15.08821944 25986,6917.936,95.439,540.924,538.677,0.0
52456.0,STARLINK-3896,PAYLOAD,2022-10-23 20:06:39,15.08823946,0.0001645,53.2188,203.6162,52.1313,307.9827,-9.647e-05,-1.822e-05,0.0,0 STARLINK-3896,1 52456U 22049F   22296.83795417 -.00001822  00000-0 -96470-4 0  9999,2 52456  53.2188 203.6162 0001645  52.1313 307.9827 15.08823946 26158,6917.929,95.439,540.932,538.656,0.0
52456.0,STARLINK-3896,PAYLOAD,2022-10-24 10:25:08,15.08814946,0.000169,53.219,200.9371,54.347,305.7679,-0.0001447,-2.589e-05,0.0,0 STARLINK-3896,1 52456U 22049F   22297.43412742 -.00002589  00000-0 -14470-3 0  9993,2 52456  53.2190 200.9371 0001690  54.3470 305.7679 15.08814946 26084,6917.956999999999,95.439,540.991,538.653,0.0
52456.0,STARLINK-3896,PAYLOAD,2022-10-25 03:54:22,15.08834875,0.000196,53.2191,197.6679,51.661,308.4558,4.0615e-05,3.58e-06,0.0,0 STARLINK-3896,1 52456U 22049F   22298.16275882  .00000358  00000-0  40615-4 0  9997,2 52456  53.2191 197.6679 0001960  51.6610 308.4558 15.08834875 26353,6917.896,95.438,541.117,538.405,0.0
52456.0,STARLINK-3896,PAYLOAD,2022-10-25 11:51:17,15.08839468,0.0001802,53.2177,196.1815,58.198,301.9188,5.951100000000001e-05,6.59e-06,0.0,0 STARLINK-3896,1 52456U 22049F   22298.49395680  .00000659  00000-0  59511-4 0  9991,2 52456  53.2177 196.1815 0001802  58.1980 301.9188 15.08839468 26248,6917.882,95.438,540.994,538.5,0.0
52456.0,STARLINK-3896,PAYLOAD,2022-10-26 03:45:10,15.08836267,0.0001831,53.2178,193.2078,60.483,299.6345,6.7394e-05,7.85e-06,0.0,0 STARLINK-3896,1 52456U 22049F   22299.15637057  .00000785  00000-0  67394-4 0  9990,2 52456  53.2178 193.2078 0001831  60.4830 299.6345 15.08836267 26501,6917.892,95.438,541.023,538.49,0.0
52456.0,STARLINK-3896,PAYLOAD,2022-10-26 11:42:05,15.08841766,0.000181,53.2179,191.7212,60.2919,299.8254,0.00010425,1.372e-05,0.0,0 STARLINK-3896,1 52456U 22049F   22299.48756643  .00001372  00000-0  10425-3 0  9994,2 52456  53.2179 191.7212 0001810  60.2919 299.8254 15.08841766 26396,6917.875,95.437,540.992,538.488,0.0
52456.0,STARLINK-3896,PAYLOAD,2022-10-27 00:25:09,15.08853051,0.0001834,53.2178,189.3423,61.2239,298.8938,0.00019488,2.816e-05,0.0,0 STARLINK-3896,1 52456U 22049F   22300.01747675  .00002816  00000-0  19488-3 0  9993,2 52456  53.2178 189.3423 0001834  61.2239 298.8938 15.08853051 26639,6917.84,95.437,540.974,538.437,0.0
52456.0,STARLINK-3896,PAYLOAD,2022-10-27 11:32:51,15.08863502,0.0001816,53.2177,187.2607,62.9745,297.1432,0.00023116,3.395e-05,0.0,0 STARLINK-3896,1 52456U 22049F   22300.48114586  .00003395  00000-0  23116-3 0  9999,2 52456  53.2177 187.2607 0001816  62.9745 297.1432 15.08863502 26542,6917.809,95.436,540.93,538.4169999999998,0.0
52456.0,STARLINK-3896,PAYLOAD,2022-10-27 19:29:46,15.08856644,0.0001797,53.2177,185.7738,63.7535,296.3641,0.00017123,2.439e-05,0.0,0 STARLINK-3896,1 52456U 22049F   22300.81234856  .00002439  00000-0  17123-3 0  9998,2 52456  53.2177 185.7738 0001797  63.7535 296.3641 15.08856644 26591,6917.83,95.437,540.938,538.451,0.0
52456.0,STARLINK-3896,PAYLOAD,2022-10-28 11:23:37,15.08857718,0.0001793,53.2177,182.8007,61.3807,298.7366,0.00015556,2.19e-05,0.0,0 STARLINK-3896,1 52456U 22049F   22301.47474207  .00002190  00000-0  15556-3 0  9999,2 52456  53.2177 182.8007 0001793  61.3807 298.7366 15.08857718 26694,6917.826,95.436,540.932,538.451,0.0
52456.0,STARLINK-3896,PAYLOAD,2022-10-28 17:45:10,15.08848971,0.0001839,53.2164,181.6113,58.518,301.5992,-5.037800000000001e-05,-1.09e-05,0.0,0 STARLINK-3896,1 52456U 22049F   22301.73970396 -.00001090  00000-0 -50378-4 0  9990,2 52456  53.2164 181.6113 0001839  58.5180 301.5992 15.08848971 26732,6917.853,95.437,540.99,538.446,0.0
52456.0,STARLINK-3896,PAYLOAD,2022-10-28 20:55:56,15.0885259,0.0001824,53.2179,181.0171,54.29600000000001,305.8202,3.9826e-05,3.46e-06,0.0,0 STARLINK-3896,1 52456U 22049F   22301.87218406  .00000346  00000-0  39826-4 0  9998,2 52456  53.2179 181.0171 0001824  54.2960 305.8202 15.08852590 26912,6917.842,95.437,540.969,538.445,0.0
52456.0,STARLINK-3896,PAYLOAD,2022-10-29 01:42:05,15.08859204,0.0001587,53.2176,180.1233,65.4606,294.6551,9.6269e-06,-1.35e-06,0.0,0 STARLINK-3896,1 52456U 22049F   22302.07089662 -.00000135  00000-0  96269-5 0  9993,2 52456  53.2176 180.1233 0001587  65.4606 294.6551 15.08859204 26781,6917.821999999999,95.436,540.785,538.589,0.0
52456.0,STARLINK-3896,PAYLOAD,2022-10-29 20:46:43,15.08844991,0.0001295,53.2179,176.5542,74.3364,285.7771,-6.7429e-05,-1.361e-05,0.0,0 STARLINK-3896,1 52456U 22049F   22302.86577939 -.00001361  00000-0 -67429-4 0  9997,2 52456  53.2179 176.5542 0001295  74.3364 285.7771 15.08844991 26908,6917.865,95.437,540.626,538.8340000000002,0.0
52456.0,STARLINK-3896,PAYLOAD,2022-10-29 22:22:06,15.08848085,0.0001746,53.2176,176.2594,55.0396,305.076,-4.1855e-05,-9.54e-06,0.0,0 STARLINK-3896,1 52456U 22049F   22302.93201826 -.00000954  00000-0 -41855-4 0  9996,2 52456  53.2176 176.2594 0001746  55.0396 305.0760 15.08848085 27072,6917.856,95.437,540.929,538.513,0.0
52456.0,STARLINK-3896,PAYLOAD,2022-10-30 11:05:11,15.08840842,0.0001554,53.2176,173.8795,58.4185,301.6958,5.0715e-05,5.19e-06,0.0,0 STARLINK-3896,1 52456U 22049F   22303.46193724  .00000519  00000-0  50715-4 0  9992,2 52456  53.2176 173.8795 0001554  58.4185 301.6958 15.08840842 26992,6917.878000000002,95.438,540.818,538.668,0.0
52456.0,STARLINK-3896,PAYLOAD,2022-10-30 17:26:44,15.08839574,0.0001469,53.2174,172.6892,64.1183,295.996,4.5634e-05,4.38e-06,0.0,0 STARLINK-3896,1 52456U 22049F   22303.72689817  .00000438  00000-0  45634-4 0  9998,2 52456  53.2174 172.6892 0001469  64.1183 295.9960 15.08839574 27036,6917.882,95.438,540.763,538.73,0.0
52456.0,STARLINK-3896,PAYLOAD,2022-10-31 10:55:58,15.08846342,0.0001594,53.2172,169.4189,54.9634,305.1508,-0.00019862,-3.448e-05,0.0,0 STARLINK-3896,1 52456U 22049F   22304.45554086 -.00003448  00000-0 -19862-3 0  9997,2 52456  53.2172 169.4189 0001594  54.9634 305.1508 15.08846342 27149,6917.861,95.437,540.8290000000002,538.623,0.0
52456.0,STARLINK-3896,PAYLOAD,2022-10-31 17:17:31,15.08837033,0.0001649,53.2173,168.2298,60.8309,299.2848,0.00012344,1.677e-05,0.0,0 STARLINK-3896,1 52456U 22049F   22304.72050033  .00001677  00000-0  12344-3 0  9998,2 52456  53.2173 168.2298 0001649  60.8309 299.2848 15.08837033 27343,6917.889,95.438,540.895,538.614,0.0
52456.0,STARLINK-3896,PAYLOAD,2022-11-01 10:46:45,15.08839024,0.0001476999999999,53.2171,164.9574,66.9746,293.1402,0.0001035,1.36e-05,0.0,0 STARLINK-3896,1 52456U 22049F   22305.44914207  .00001360  00000-0  10350-3 0  9994,2 52456  53.2171 164.9574 0001477  66.9746 293.1402 15.08839024 27297,6917.8830000000025,95.438,540.77,538.727,0.0
52456.0,STARLINK-3896,PAYLOAD,2022-11-01 17:08:19,15.08828997,0.0001296,53.2178,163.7684,63.3506,296.7619,1.0017e-05,-1.28e-06,0.0,0 STARLINK-3896,1 52456U 22049F   22305.71411140 -.00000128  00000-0  10017-4 0  9995,2 52456  53.2178 163.7684 0001296  63.3506 296.7619 15.08828997 27495,6917.9140000000025,95.438,540.6759999999998,538.882,0.0
52456.0,STARLINK-3896,PAYLOAD,2022-11-02 09:02:10,15.08835728,0.0001398,53.2182,160.795,60.4091,299.7041,1.1645e-05,-1.03e-06,0.0,0 STARLINK-3896,1 52456U 22049F   22306.37651055 -.00000103  00000-0  11645-4 0  9990,2 52456  53.2182 160.7950 0001398  60.4091 299.7041 15.08835728 27596,6917.893,95.438,540.726,538.7909999999998,0.0
